      2.10          N: GNSS NAV DATA                        RINEX VERSION / TYPE
fic2rin                                 04/17/2024 00:59:02 PGM / RUN BY / DATE
                                                            END OF HEADER
30 24  4 16 11 59 44.0 -.404416117817D-03  .557065504836D-11  .000000000000D+00
     .960000000000D+02  .384375000000D+01  .523950396066D-08 -.305682429558D+01
     .121071934700D-06  .704164023045D-02  .879168510437D-05  .515365801430D+04
     .215984000000D+06 -.502914190292D-07 -.366540407994D+00 -.111758708954D-06
     .935707660780D+00  .200187500000D+03 -.248872947732D+01 -.813248160764D-08
     .235724104569D-09  .100000000000D+01  .231000000000D+04  .000000000000D+00
     .240000000000D+01  .000000000000D+00  .372529029846D-08  .960000000000D+02
     .208800000000D+06  .400000000000D+01
2  24  4 16 12  0  0.0 -.452416948974D-03  .648014975013D-11  .000000000000D+00
     .600000000000D+02  .330312500000D+02  .421553273672D-08  .200075155785D+00
     .173412263393D-05  .160365854390D-01  .643916428089D-05  .515370692444D+04
     .216000000000D+06 -.143423676491D-06  .268962590946D+01 -.247731804848D-06
     .967616297423D+00  .264562500000D+03 -.120328068202D+01 -.825784397235D-08
    -.742888087128D-10  .100000000000D+01  .231000000000D+04  .000000000000D+00
     .240000000000D+01  .000000000000D+00 -.176951289177D-07  .600000000000D+02
     .208800000000D+06  .400000000000D+01
5  24  4 16 12  0  0.0 -.169337727129D-03 -.136424205266D-11  .000000000000D+00
     .510000000000D+02 -.385937500000D+02  .430517932800D-08  .307363724441D+00
    -.188685953617D-05  .576147239190D-02  .409223139286D-05  .515359653473D+04
     .216000000000D+06 -.147148966789D-06 -.251091909628D+01  .316649675369D-07
     .970848167266D+00  .307093750000D+03  .123388527934D+01 -.821427072878D-08
     .875036448780D-10  .100000000000D+01  .231000000000D+04  .000000000000D+00
     .240000000000D+01  .000000000000D+00 -.107102096081D-07  .510000000000D+02
     .208800000000D+06  .400000000000D+01
6  24  4 16 12  0  0.0  .319212209433D-03 -.180762071977D-10  .000000000000D+00
     .560000000000D+02  .469062500000D+02  .373765568836D-08 -.204167532036D+01
     .244565308094D-05  .307649141178D-02  .576488673687D-05  .515360400009D+04
     .216000000000D+06  .409781932831D-07  .278698042757D+01  .223517417908D-07
     .989947847233D+00  .287250000000D+03 -.706137731459D+00 -.783318342639D-08
     .900037490174D-10  .100000000000D+01  .231000000000D+04  .000000000000D+00
     .240000000000D+01  .000000000000D+00  .419095158577D-08  .560000000000D+02
     .208800000000D+06  .400000000000D+01
4  24  4 16 12  0  0.0  .340061727911D-03  .875388650456D-11  .000000000000D+00
     .239000000000D+03 -.642500000000D+02  .438875423780D-08 -.373058557992D+00
    -.328943133354D-05  .279574329033D-02  .809319317341D-05  .515376296425D+04
     .216000000000D+06  .447034835815D-07 -.138095107041D+01  .149011611938D-07
     .964335677297D+00  .224000000000D+03 -.294547887662D+01 -.795818863336D-08
     .159292349451D-09  .100000000000D+01  .231000000000D+04  .000000000000D+00
     .240000000000D+01  .000000000000D+00 -.465661287308D-08  .239000000000D+03
     .208800000000D+06  .400000000000D+01
3  24  4 16 12  0  0.0  .313711352646D-03  .209183781408D-10  .000000000000D+00
     .157000000000D+03 -.392812500000D+02  .388801909446D-08  .296208176065D+01
    -.203028321266D-05  .533278658986D-02  .463053584099D-05  .515374694443D+04
     .216000000000D+06  .279396772385D-07 -.246012352015D+01 -.353902578354D-07
     .983850700188D+00  .301906250000D+03  .106606751255D+01 -.780425364992D-08
     .147148986489D-09  .100000000000D+01  .231000000000D+04  .000000000000D+00
     .240000000000D+01  .000000000000D+00  .186264514923D-08  .157000000000D+03
     .208800000000D+06  .400000000000D+01
7  24  4 16 12  0  0.0 -.108533073217D-03 -.841282599140D-11  .000000000000D+00
     .340000000000D+02  .375000000000D+01  .482234372712D-08 -.291216216231D+01
    -.502914190292D-07  .183488875628D-01  .878423452377D-05  .515364841080D+04
     .216000000000D+06  .208616256714D-06 -.367765007940D+00 -.270083546638D-06
     .950570098009D+00  .202937500000D+03 -.213321782440D+01 -.780068207258D-08
     .278583032673D-09  .100000000000D+01  .231000000000D+04  .000000000000D+00
     .240000000000D+01  .000000000000D+00 -.111758708954D-07  .340000000000D+02
     .208800000000D+06  .400000000000D+01
22 24  4 16 12  0  0.0 -.283587723970D-06 -.557065504836D-11  .000000000000D+00
     .700000000000D+01  .263750000000D+02  .484127308703D-08  .473544873570D+00
     .127404928207D-05  .143558509881D-01  .705756247044D-05  .515370565796D+04
     .216000000000D+06 -.987201929092D-07  .768614768439D+00 -.152736902237D-06
     .961665826933D+00  .249187500000D+03 -.113758008457D+01 -.833034699239D-08
    -.213937482783D-09  .100000000000D+01  .231000000000D+04  .000000000000D+00
     .240000000000D+01  .000000000000D+00 -.111758708954D-07  .700000000000D+01
     .208800000000D+06  .400000000000D+01
32 24  4 16 12  0  0.0 -.618157442659D-03 -.341060513165D-12  .000000000000D+00
     .320000000000D+02 -.708125000000D+02  .454447500991D-08  .667268507189D+00
    -.381655991077D-05  .772676779889D-02  .768154859543D-05  .515366131973D+04
     .216000000000D+06 -.987201929092D-07 -.142571661818D+01  .521540641785D-07
     .961324042456D+00  .232500000000D+03 -.214110635267D+01 -.808247952486D-08
     .671456540289D-10  .100000000000D+01  .231000000000D+04  .000000000000D+00
     .240000000000D+01  .000000000000D+00  .931322574615D-09  .320000000000D+02
     .208800000000D+06  .400000000000D+01
29 24  4 16 12  0  0.0 -.601687468588D-03  .125055521494D-11  .000000000000D+00
     .320000000000D+02  .445625000000D+02  .411838583302D-08 -.241652093665D-01
     .216253101826D-05  .281721493229D-02  .840425491333D-05  .515361266708D+04
     .216000000000D+06  .745058059692D-08  .180177523933D+01 -.670552253723D-07
     .971681857947D+00  .223343750000D+03  .250151766641D+01 -.785925594098D-08
    -.389301930274D-09  .100000000000D+01  .231000000000D+04  .000000000000D+00
     .240000000000D+01  .000000000000D+00 -.977888703346D-08  .320000000000D+02
     .208800000000D+06  .400000000000D+01
24 24  4 16 12  0  0.0 -.459971837699D-03 -.432009983342D-11  .000000000000D+00
     .850000000000D+02 -.318750000000D+01  .519164482427D-08 -.188249558451D+01
    -.234693288803D-06  .151968762511D-01  .848621129990D-05  .515371772194D+04
     .216000000000D+06  .262632966042D-06 -.464063088536D+00 -.689178705215D-07
     .934189428305D+00  .197406250000D+03  .973355778552D+00 -.800247619240D-08
     .391444876679D-09  .100000000000D+01  .231000000000D+04  .000000000000D+00
     .240000000000D+01  .000000000000D+00  .232830643654D-08  .850000000000D+02
     .208800000000D+06  .400000000000D+01
27 24  4 16 12  0  0.0 -.189603306353D-04 -.227373675443D-11  .000000000000D+00
     .930000000000D+02  .295625000000D+02  .454054627483D-08  .147727705909D-01
     .171177089214D-05  .125682516955D-01  .753626227379D-05  .515367732239D+04
     .216000000000D+06  .279396772385D-07  .171886466733D+01  .214204192162D-06
     .962511807589D+00  .233000000000D+03  .784487258437D+00 -.821534220198D-08
    -.357157734196D-09  .100000000000D+01  .231000000000D+04  .000000000000D+00
     .340000000000D+01  .000000000000D+00  .186264514923D-08  .930000000000D+02
     .208800000000D+06  .400000000000D+01
21 24  4 16 12  0  0.0  .126967672259D-03 -.159161572810D-11  .000000000000D+00
     .141000000000D+03  .299375000000D+02  .441625538333D-08 -.177585063691D+00
     .145845115185D-05  .252302952576D-01  .605732202530D-05  .515370202827D+04
     .216000000000D+06  .163912773132D-06  .268268162313D+01 -.445172190666D-06
     .961882423658D+00  .267843750000D+03 -.589123662931D+00 -.843499420851D-08
    -.200008331150D-10  .100000000000D+01  .231000000000D+04  .000000000000D+00
     .240000000000D+01  .000000000000D+00 -.102445483208D-07  .141000000000D+03
     .208800000000D+06  .400000000000D+01
26 24  4 16 12  0  0.0  .165929086506D-03 -.511590769747D-11  .000000000000D+00
     .880000000000D+02  .253437500000D+02  .554951687394D-08  .178474706599D+01
     .139139592648D-05  .883751339279D-02  .663287937641D-05  .515361613274D+04
     .216000000000D+06 -.217929482460D-06  .599589438850D+00  .117346644402D-06
     .931637755389D+00  .239687500000D+03  .540936166905D+00 -.847928176755D-08
    -.153577825704D-09  .100000000000D+01  .231000000000D+04  .000000000000D+00
     .340000000000D+01  .000000000000D+00  .698491930962D-08  .880000000000D+02
     .208800000000D+06  .400000000000D+01
15 24  4 16 12  0  0.0  .149024650455D-03  .409272615798D-11  .000000000000D+00
     .770000000000D+02 -.839375000000D+02  .514628579203D-08 -.101415605469D+01
    -.398792326450D-05  .155190025689D-01  .768713653088D-05  .515363787651D+04
     .216000000000D+06 -.968575477600D-07 -.156708290382D+01  .339001417160D-06
     .934676530286D+00  .217625000000D+03  .130146419045D+01 -.849571102332D-08
     .112861844006D-09  .100000000000D+01  .231000000000D+04  .000000000000D+00
     .240000000000D+01  .000000000000D+00 -.107102096081D-07  .770000000000D+02
     .208800000000D+06  .400000000000D+01
9  24  4 16 12  0  0.0  .162411481142D-03  .136424205266D-10  .000000000000D+00
     .540000000000D+02 -.637187500000D+02  .456661878943D-08  .385948095122D+00
    -.341609120369D-05  .266942125745D-02  .786781311035D-05  .515368700027D+04
     .216000000000D+06 -.111758708954D-07 -.144018437328D+01 -.186264514923D-07
     .957879751056D+00  .223000000000D+03  .199701329160D+01 -.807747931658D-08
     .152149194768D-09  .100000000000D+01  .231000000000D+04  .000000000000D+00
     .240000000000D+01  .000000000000D+00  .931322574615D-09  .540000000000D+02
     .208800000000D+06  .400000000000D+01
